[{"OBJECT_NAME":"STARLINK-36587","OBJECT_ID":"2026-014A","EPOCH":"2026-03-13T05:23:15.429696","MEAN_MOTION":15.75305084,"ECCENTRICITY":0.00018437,"INCLINATION":97.2827,"RA_OF_ASC_NODE":317.3898,"ARG_OF_PERICENTER":65.0091,"MEAN_ANOMALY":295.1365,"EPHEMERIS_TYPE":0,"CLASSIFICATION_TYPE":"U","NORAD_CAT_ID":67532,"ELEMENT_SET_NO":999,"REV_AT_EPOCH":913,"BSTAR":0.001524884,"MEAN_MOTION_DOT":0.0023485,"MEAN_MOTION_DDOT":0},{"OBJECT_NAME":"STARLINK-36417","OBJECT_ID":"2026-014B","EPOCH":"2026-03-13T15:58:00.878880","MEAN_MOTION":15.75388199,"ECCENTRICITY":0.00026556,"INCLINATION":97.2853,"RA_OF_ASC_NODE":317.7064,"ARG_OF_PERICENTER":86.9651,"MEAN_ANOMALY":273.1918,"EPHEMERIS_TYPE":0,"CLASSIFICATION_TYPE":"U","NORAD_CAT_ID":67533,"ELEMENT_SET_NO":999,"REV_AT_EPOCH":919,"BSTAR":0.0029746576,"MEAN_MOTION_DOT":0.00473067,"MEAN_MOTION_DDOT":0},{"OBJECT_NAME":"STARLINK-36576","OBJECT_ID":"2026-014C","EPOCH":"2026-03-13T15:06:10.842624","MEAN_MOTION":15.75272405,"ECCENTRICITY":0.00018015,"INCLINATION":97.2847,"RA_OF_ASC_NODE":317.7573,"ARG_OF_PERICENTER":126.8015,"MEAN_ANOMALY":233.3416,"EPHEMERIS_TYPE":0,"CLASSIFICATION_TYPE":"U","NORAD_CAT_ID":67534,"ELEMENT_SET_NO":999,"REV_AT_EPOCH":919,"BSTAR":0.0015970575,"MEAN_MOTION_DOT":0.00245947,"MEAN_MOTION_DDOT":0},{"OBJECT_NAME":"STARLINK-36574","OBJECT_ID":"2026-014D","EPOCH":"2026-03-13T05:40:32.250432","MEAN_MOTION":15.75366259,"ECCENTRICITY":0.00019725,"INCLINATION":97.2853,"RA_OF_ASC_NODE":317.3743,"ARG_OF_PERICENTER":37.158,"MEAN_ANOMALY":322.9821,"EPHEMERIS_TYPE":0,"CLASSIFICATION_TYPE":"U","NORAD_CAT_ID":67535,"ELEMENT_SET_NO":999,"REV_AT_EPOCH":913,"BSTAR":0.0022792433,"MEAN_MOTION_DOT":0.00357155,"MEAN_MOTION_DDOT":0},{"OBJECT_NAME":"STARLINK-36572","OBJECT_ID":"2026-014E","EPOCH":"2026-03-13T15:38:11.690016","MEAN_MOTION":15.7536693,"ECCENTRICITY":0.00024583,"INCLINATION":97.2842,"RA_OF_ASC_NODE":317.7264,"ARG_OF_PERICENTER":110.0567,"MEAN_ANOMALY":250.0963,"EPHEMERIS_TYPE":0,"CLASSIFICATION_TYPE":"U","NORAD_CAT_ID":67536,"ELEMENT_SET_NO":999,"REV_AT_EPOCH":919,"BSTAR":0.0028227022,"MEAN_MOTION_DOT":0.00447102,"MEAN_MOTION_DDOT":0},{"OBJECT_NAME":"STARLINK-36561","OBJECT_ID":"2026-014F","EPOCH":"2026-03-13T05:06:28.494720","MEAN_MOTION":15.75187164,"ECCENTRICITY":0.00019501,"INCLINATION":97.284,"RA_OF_ASC_NODE":317.2503,"ARG_OF_PERICENTER":98.543,"MEAN_ANOMALY":261.6056,"EPHEMERIS_TYPE":0,"CLASSIFICATION_TYPE":"U","NORAD_CAT_ID":67537,"ELEMENT_SET_NO":999,"REV_AT_EPOCH":912,"BSTAR":0.0018048143,"MEAN_MOTION_DOT":0.00277988,"MEAN_MOTION_DDOT":0},{"OBJECT_NAME":"STARLINK-36397","OBJECT_ID":"2026-014G","EPOCH":"2026-03-13T05:12:04.416192","MEAN_MOTION":15.75318069,"ECCENTRICITY":0.00025161,"INCLINATION":97.2856,"RA_OF_ASC_NODE":317.2462,"ARG_OF_PERICENTER":43.943,"MEAN_ANOMALY":316.2035,"EPHEMERIS_TYPE":0,"CLASSIFICATION_TYPE":"U","NORAD_CAT_ID":67538,"ELEMENT_SET_NO":999,"REV_AT_EPOCH":912,"BSTAR":0.0017409347,"MEAN_MOTION_DOT":0.00269399,"MEAN_MOTION_DDOT":0},{"OBJECT_NAME":"STARLINK-36573","OBJECT_ID":"2026-014H","EPOCH":"2026-03-13T14:55:00.093504","MEAN_MOTION":15.75274915,"ECCENTRICITY":0.00010445,"INCLINATION":97.2858,"RA_OF_ASC_NODE":317.7686,"ARG_OF_PERICENTER":119.6721,"MEAN_ANOMALY":240.4648,"EPHEMERIS_TYPE":0,"CLASSIFICATION_TYPE":"U","NORAD_CAT_ID":67539,"ELEMENT_SET_NO":999,"REV_AT_EPOCH":919,"BSTAR":0.001732003,"MEAN_MOTION_DOT":0.00267448,"MEAN_MOTION_DDOT":0},{"OBJECT_NAME":"STARLINK-36585","OBJECT_ID":"2026-014J","EPOCH":"2026-03-13T05:00:22.605408","MEAN_MOTION":15.75186529,"ECCENTRICITY":0.00018658,"INCLINATION":97.285,"RA_OF_ASC_NODE":317.2554,"ARG_OF_PERICENTER":109.7634,"MEAN_ANOMALY":250.3833,"EPHEMERIS_TYPE":0,"CLASSIFICATION_TYPE":"U","NORAD_CAT_ID":67540,"ELEMENT_SET_NO":999,"REV_AT_EPOCH":912,"BSTAR":0.001488249,"MEAN_MOTION_DOT":0.00227845,"MEAN_MOTION_DDOT":0},{"OBJECT_NAME":"STARLINK-36579","OBJECT_ID":"2026-014K","EPOCH":"2026-03-13T15:29:33.482688","MEAN_MOTION":15.75351669,"ECCENTRICITY":0.00022339,"INCLINATION":97.2843,"RA_OF_ASC_NODE":317.7346,"ARG_OF_PERICENTER":121.7598,"MEAN_ANOMALY":238.3886,"EPHEMERIS_TYPE":0,"CLASSIFICATION_TYPE":"U","NORAD_CAT_ID":67541,"ELEMENT_SET_NO":999,"REV_AT_EPOCH":919,"BSTAR":0.0027097744,"MEAN_MOTION_DOT":0.00427954,"MEAN_MOTION_DDOT":0},{"OBJECT_NAME":"STARLINK-35934","OBJECT_ID":"2026-014L","EPOCH":"2026-03-13T14:40:46.191936","MEAN_MOTION":15.75278766,"ECCENTRICITY":0.00011637,"INCLINATION":97.2858,"RA_OF_ASC_NODE":317.7812,"ARG_OF_PERICENTER":89.8867,"MEAN_ANOMALY":270.2532,"EPHEMERIS_TYPE":0,"CLASSIFICATION_TYPE":"U","NORAD_CAT_ID":67542,"ELEMENT_SET_NO":999,"REV_AT_EPOCH":918,"BSTAR":0.0016658842,"MEAN_MOTION_DOT":0.00256956,"MEAN_MOTION_DDOT":0},{"OBJECT_NAME":"STARLINK-36581","OBJECT_ID":"2026-014M","EPOCH":"2026-03-13T14:51:57.100032","MEAN_MOTION":15.75268878,"ECCENTRICITY":0.0001588,"INCLINATION":97.2857,"RA_OF_ASC_NODE":317.7702,"ARG_OF_PERICENTER":112.7488,"MEAN_ANOMALY":247.3945,"EPHEMERIS_TYPE":0,"CLASSIFICATION_TYPE":"U","NORAD_CAT_ID":67543,"ELEMENT_SET_NO":999,"REV_AT_EPOCH":919,"BSTAR":0.00156301,"MEAN_MOTION_DOT":0.00240508,"MEAN_MOTION_DDOT":0},{"OBJECT_NAME":"STARLINK-36565","OBJECT_ID":"2026-014N","EPOCH":"2026-03-13T15:00:35.470656","MEAN_MOTION":15.75287108,"ECCENTRICITY":0.00023289,"INCLINATION":97.2855,"RA_OF_ASC_NODE":317.7624,"ARG_OF_PERICENTER":118.096,"MEAN_ANOMALY":242.0541,"EPHEMERIS_TYPE":0,"CLASSIFICATION_TYPE":"U","NORAD_CAT_ID":67544,"ELEMENT_SET_NO":999,"REV_AT_EPOCH":919,"BSTAR":0.0018154531,"MEAN_MOTION_DOT":0.00280939,"MEAN_MOTION_DDOT":0},{"OBJECT_NAME":"STARLINK-36583","OBJECT_ID":"2026-014P","EPOCH":"2026-03-13T04:54:47.042496","MEAN_MOTION":15.75159639,"ECCENTRICITY":0.00019639,"INCLINATION":97.2849,"RA_OF_ASC_NODE":317.2619,"ARG_OF_PERICENTER":89.2214,"MEAN_ANOMALY":270.9276,"EPHEMERIS_TYPE":0,"CLASSIFICATION_TYPE":"U","NORAD_CAT_ID":67545,"ELEMENT_SET_NO":999,"REV_AT_EPOCH":912,"BSTAR":0.0019642133,"MEAN_MOTION_DOT":0.00303091,"MEAN_MOTION_DDOT":0},{"OBJECT_NAME":"STARLINK-36580","OBJECT_ID":"2026-014Q","EPOCH":"2026-03-13T15:09:13.759200","MEAN_MOTION":15.75286728,"ECCENTRICITY":0.00015072,"INCLINATION":97.2854,"RA_OF_ASC_NODE":317.754,"ARG_OF_PERICENTER":91.8124,"MEAN_ANOMALY":268.3314,"EPHEMERIS_TYPE":0,"CLASSIFICATION_TYPE":"U","NORAD_CAT_ID":67546,"ELEMENT_SET_NO":999,"REV_AT_EPOCH":919,"BSTAR":0.0017647917,"MEAN_MOTION_DOT":0.00272824,"MEAN_MOTION_DDOT":0},{"OBJECT_NAME":"STARLINK-36584","OBJECT_ID":"2026-014R","EPOCH":"2026-03-13T05:34:56.863776","MEAN_MOTION":15.75375485,"ECCENTRICITY":0.00019075,"INCLINATION":97.2865,"RA_OF_ASC_NODE":317.3776,"ARG_OF_PERICENTER":36.8347,"MEAN_ANOMALY":323.3049,"EPHEMERIS_TYPE":0,"CLASSIFICATION_TYPE":"U","NORAD_CAT_ID":67547,"ELEMENT_SET_NO":999,"REV_AT_EPOCH":913,"BSTAR":0.0023796474,"MEAN_MOTION_DOT":0.00373779,"MEAN_MOTION_DDOT":0}]
