STARLINK-36587          
1 67532U 26014A   26072.22448414  .00234850  00000+0  15249-2 0  9996
2 67532  97.2827 317.3898 0001843  65.0091 295.1365 15.75305084  9138
STARLINK-36417          
1 67533U 26014B   26072.66528795  .00473067  00000+0  29747-2 0  9999
2 67533  97.2853 317.7064 0002655  86.9651 273.1918 15.75388199  9197
STARLINK-36576          
1 67534U 26014C   26072.62929216  .00245947  00000+0  15971-2 0  9997
2 67534  97.2847 317.7573 0001801 126.8015 233.3416 15.75272405  9199
STARLINK-36574          
1 67535U 26014D   26072.23648438  .00357155  00000+0  22792-2 0  9993
2 67535  97.2853 317.3743 0001972  37.1580 322.9821 15.75366259  9132
STARLINK-36572          
1 67536U 26014E   26072.65152419  .00447102  00000+0  28227-2 0  9990
2 67536  97.2842 317.7264 0002458 110.0567 250.0963 15.75366930  9199
STARLINK-36561          
1 67537U 26014F   26072.21282980  .00277988  00000+0  18048-2 0  9993
2 67537  97.2840 317.2503 0001950  98.5430 261.6056 15.75187164  9128
STARLINK-36397          
1 67538U 26014G   26072.21671778  .00269399  00000+0  17409-2 0  9998
2 67538  97.2856 317.2462 0002516  43.9430 316.2035 15.75318069  9127
STARLINK-36573          
1 67539U 26014H   26072.62152886  .00267448  00000+0  17320-2 0  9993
2 67539  97.2858 317.7686 0001044 119.6721 240.4648 15.75274915  9198
STARLINK-36585          
1 67540U 26014J   26072.20859497  .00227845  00000+0  14882-2 0  9998
2 67540  97.2850 317.2554 0001865 109.7634 250.3833 15.75186529  9127
STARLINK-36579          
1 67541U 26014K   26072.64552642  .00427954  00000+0  27098-2 0  9995
2 67541  97.2843 317.7346 0002233 121.7598 238.3886 15.75351669  9197
STARLINK-35934          
1 67542U 26014L   26072.61164574  .00256956  00000+0  16659-2 0  9999
2 67542  97.2858 317.7812 0001163  89.8867 270.2532 15.75278766  9184
STARLINK-36581          
1 67543U 26014M   26072.61941088  .00240508  00000+0  15630-2 0  9997
2 67543  97.2857 317.7702 0001588 112.7488 247.3945 15.75268878  9195
STARLINK-36565          
1 67544U 26014N   26072.62541054  .00280939  00000+0  18155-2 0  9995
2 67544  97.2855 317.7624 0002328 118.0960 242.0541 15.75287108  9195
STARLINK-36583          
1 67545U 26014P   26072.20471114  .00303091  00000+0  19642-2 0  9996
2 67545  97.2849 317.2619 0001963  89.2214 270.9276 15.75159639  9128
STARLINK-36580          
1 67546U 26014Q   26072.63140925  .00272824  00000+0  17648-2 0  9990
2 67546  97.2854 317.7540 0001507  91.8124 268.3314 15.75286728  9197
STARLINK-36584          
1 67547U 26014R   26072.23260259  .00373779  00000+0  23796-2 0  9992
2 67547  97.2865 317.3776 0001907  36.8347 323.3049 15.75375485  9137
